[{"OBJECT_NAME":"KUZGTU 1 (RS47S)","OBJECT_ID":"2023-091AV","EPOCH":"2026-03-09T22:22:51.965760","MEAN_MOTION":15.27481352,"ECCENTRICITY":0.0012896,"INCLINATION":97.5178,"RA_OF_ASC_NODE":132.5224,"ARG_OF_PERICENTER":89.3666,"MEAN_ANOMALY":270.9051,"EPHEMERIS_TYPE":0,"CLASSIFICATION_TYPE":"U","NORAD_CAT_ID":57217,"ELEMENT_SET_NO":999,"REV_AT_EPOCH":14921,"BSTAR":0.00057711473,"MEAN_MOTION_DOT":0.00015496,"MEAN_MOTION_DDOT":0},{"OBJECT_NAME":"STARLINK-31419","OBJECT_ID":"2024-060W","EPOCH":"2026-03-09T13:21:37.596096","MEAN_MOTION":15.27578794,"ECCENTRICITY":0.00011522,"INCLINATION":42.9977,"RA_OF_ASC_NODE":260.5051,"ARG_OF_PERICENTER":278.1089,"MEAN_ANOMALY":81.9632,"EPHEMERIS_TYPE":0,"CLASSIFICATION_TYPE":"U","NORAD_CAT_ID":59368,"ELEMENT_SET_NO":999,"REV_AT_EPOCH":11004,"BSTAR":1.651149e-5,"MEAN_MOTION_DOT":1.92e-6,"MEAN_MOTION_DDOT":0}]
